COSMOS 2433 (720)       
1 32275U 07052A   22089.95914142 -.00000090  00000+0  00000+0 0  9997
2 32275  66.0836   7.2745 0003274 286.5228 236.0104  2.13104126112295
COSMOS 2432 (719)       
1 32276U 07052B   22089.63972013 -.00000091  00000+0  00000+0 0  9995
2 32276  66.0971   7.3841 0011773 330.4286 255.5844  2.13103553112289
COSMOS 2434 (721)       
1 32393U 07065A   22089.42341150 -.00000009  00000+0  00000+0 0  9997
2 32393  64.3997 244.1225 0004901  78.3243 282.4933  2.13103145110992
COSMOS 2436 (723)       
1 32395U 07065C   22088.74954671 -.00000004  00000+0  00000+0 0  9996
2 32395  64.4082 244.2018 0016240   8.2008 331.5719  2.13103037110900
COSMOS 2456 (730)       
1 36111U 09070A   22089.95766898  .00000067  00000+0  00000+0 0  9998
2 36111  64.3326 123.7499 0005450 300.2119 277.1319  2.13099221 95668
COSMOS 2457 (733)       
1 36112U 09070B   22089.75200505  .00000068  00000+0  00000+0 0  9996
2 36112  64.3155 123.6342 0004748 189.4944 356.7414  2.13101401 95661
COSMOS 2461 (735)       
1 36401U 10007B   22089.28156042 -.00000091  00000+0  00000+0 0  9990
2 36401  65.9709   6.1463 0021980   4.3930 215.8250  2.13103839 94007
COSMOS 2460 (732)       
1 36402U 10007C   22089.90409495 -.00000090  00000+0  00000+0 0  9992
2 36402  65.9576   6.0766 0002173 347.4902 297.9923  2.13106443 94011
COSMOS 2464 (736)       
1 37139U 10041C   22088.82223161 -.00000006  00000+0  00000+0 0  9999
2 37139  63.9993 243.2582 0029985  14.2207 104.2125  2.13100789 90059
COSMOS 2476 (744)       
1 37867U 11064A   22089.32195142  .00000069  00000+0  00000+0 0  9994
2 37867  64.6220 125.0971 0022830 239.5632 114.9177  2.13101884 80997
COSMOS 2477 (745)       
1 37868U 11064B   22089.67531647  .00000068  00000+0  00000+0 0  9996
2 37868  64.6296 125.1485 0020420 241.4972 202.2222  2.13101495 80961
COSMOS 2475 (743)       
1 37869U 11064C   22089.89989241  .00000068  00000+0  00000+0 0  9998
2 37869  64.6373 125.1484 0024560 257.4521 316.4941  2.13101892 80971
COSMOS 2485 (747)       
1 39155U 13019A   22089.38916321  .00000069  00000+0  00000+0 0  9994
2 39155  64.7863 125.5061 0023206 235.6110 214.8338  2.13101881 69470
COSMOS 2492 (754)       
1 39620U 14012A   22089.50125832 -.00000091  00000+0  00000+0 0  9994
2 39620  65.8442   5.7830 0014893 325.9069 245.0948  2.13103304 62426
COSMOS 2500 (755)       
1 40001U 14032A   22089.62204337 -.00000090  00000+0  00000+0 0  9991
2 40001  65.7840   5.6458 0004847 219.3426 303.1907  2.13102515 60644
COSMOS 2501 (702K)      
1 40315U 14075A   22088.89602705 -.00000007  00000+0  00000+0 0  9993
2 40315  63.7077 243.9550 0016584 205.1637 287.9953  2.13101453 57039
COSMOS 2514 (751)       
1 41330U 16008A   22089.55299209 -.00000091  00000+0  00000+0 0  9997
2 41330  65.5846   5.3603 0008698 222.9514  70.2956  2.13102899 47803
COSMOS 2516 (753)       
1 41554U 16032A   22089.84243413 -.00000012  00000+0  00000+0 0  9993
2 41554  63.9331 244.1757 0012406 210.9101 205.5452  2.13106149 45428
COSMOS 2522 (752)       
1 42939U 17055A   22089.54590293 -.00000010  00000+0  00000+0 0  9993
2 42939  64.1679 244.5579 0005271 240.2673 166.7926  2.13101920 35179
COSMOS 2527 (756)       
1 43508U 18053A   22089.01775804  .00000069  00000+0  00000+0 0  9993
2 43508  64.9496 125.5015 0009373 238.3581 155.6353  2.13102589 29450
COSMOS 2529 (757)       
1 43687U 18086A   22089.77979733 -.00000011  00000+0  00000+0 0  9995
2 43687  64.3817 244.8450 0007325 273.5672 268.4422  2.13102124 26489
COSMOS 2534 (758)       
1 44299U 19030A   22089.59979990 -.00000010  00000+0  00000+0 0  9999
2 44299  64.4538 244.7283 0010477 296.5068 242.0352  2.13102033 22125
COSMOS 2544 (759)       
1 44850U 19088A   22089.62372721  .00000069  00000+0  00000+0 0  9991
2 44850  64.9350 125.3359 0014200 262.0741 280.3268  2.13102393 17895
COSMOS 2545 (760)       
1 45358U 20018A   22089.15326248 -.00000092  00000+0  00000+0 0  9998
2 45358  64.9210   6.0456 0009090 261.7861 129.2839  2.13102765 15848
COSMOS 2547 (705K)      
1 46805U 20075A   22089.54007659 -.00000010  00000+0  00000+0 0  9994
2 46805  64.6770 244.1315 0005251 244.9521 295.1815  2.13103099 11095
